[{"OBJECT_NAME":"STARLINK-3908","OBJECT_ID":"2022-049AS","EPOCH":"2026-03-09T08:55:00.667200","MEAN_MOTION":15.08843523,"ECCENTRICITY":0.00016168,"INCLINATION":53.2177,"RA_OF_ASC_NODE":50.5481,"ARG_OF_PERICENTER":84.0688,"MEAN_ANOMALY":276.0489,"EPHEMERIS_TYPE":0,"CLASSIFICATION_TYPE":"U","NORAD_CAT_ID":52491,"ELEMENT_SET_NO":999,"REV_AT_EPOCH":21234,"BSTAR":5.6010813e-5,"MEAN_MOTION_DOT":6.04e-6,"MEAN_MOTION_DDOT":0},{"OBJECT_NAME":"CZ-2C R\/B","OBJECT_ID":"2026-021B","EPOCH":"2026-03-09T21:51:23.415552","MEAN_MOTION":15.24093237,"ECCENTRICITY":0.01506252,"INCLINATION":97.65,"RA_OF_ASC_NODE":144.3935,"ARG_OF_PERICENTER":10.4871,"MEAN_ANOMALY":349.9447,"EPHEMERIS_TYPE":0,"CLASSIFICATION_TYPE":"U","NORAD_CAT_ID":67647,"ELEMENT_SET_NO":999,"REV_AT_EPOCH":573,"BSTAR":0.00038397881,"MEAN_MOTION_DOT":0.00012809,"MEAN_MOTION_DDOT":0}]
